CCSDS_OMM_VERS = 2.0
CREATION_DATE  = 
ORIGINATOR     = 

OBJECT_NAME    = ATLAS CENTAUR 2
OBJECT_ID      = 1963-047A
CENTER_NAME    = EARTH
REF_FRAME      = TEME
TIME_SYSTEM    = UTC
MEAN_ELEMENT_THEORY = SGP/SGP4

EPOCH          = 2026-04-05T13:12:12.564288
MEAN_MOTION    = 14.12196404
ECCENTRICITY   = .05470377
INCLINATION    = 30.3576
RA_OF_ASC_NODE = 45.5192
ARG_OF_PERICENTER = 317.0189
MEAN_ANOMALY   = 38.8893

EPHEMERIS_TYPE = 0
CLASSIFICATION_TYPE = U
NORAD_CAT_ID   = 694
ELEMENT_SET_NO = 999
REV_AT_EPOCH   = 13542
BSTAR          = .45905754E-3
MEAN_MOTION_DOT = .3849E-4
MEAN_MOTION_DDOT = 0

CCSDS_OMM_VERS = 2.0
CREATION_DATE  = 
ORIGINATOR     = 

OBJECT_NAME    = THOR AGENA D R/B
OBJECT_ID      = 1964-002A
CENTER_NAME    = EARTH
REF_FRAME      = TEME
TIME_SYSTEM    = UTC
MEAN_ELEMENT_THEORY = SGP/SGP4

EPOCH          = 2026-04-05T14:15:35.523360
MEAN_MOTION    = 14.34035320
ECCENTRICITY   = .00329614
INCLINATION    = 99.1208
RA_OF_ASC_NODE = 110.3972
ARG_OF_PERICENTER = 178.4286
MEAN_ANOMALY   = 181.7006

EPHEMERIS_TYPE = 0
CLASSIFICATION_TYPE = U
NORAD_CAT_ID   = 733
ELEMENT_SET_NO = 999
REV_AT_EPOCH   = 24215
BSTAR          = .11453991E-3
MEAN_MOTION_DOT = .273E-5
MEAN_MOTION_DDOT = 0

CCSDS_OMM_VERS = 2.0
CREATION_DATE  = 
ORIGINATOR     = 

OBJECT_NAME    = SL-3 R/B
OBJECT_ID      = 1964-053B
CENTER_NAME    = EARTH
REF_FRAME      = TEME
TIME_SYSTEM    = UTC
MEAN_ELEMENT_THEORY = SGP/SGP4

EPOCH          = 2026-04-05T14:04:20.184672
MEAN_MOTION    = 14.61388653
ECCENTRICITY   = .00806528
INCLINATION    = 65.0759
RA_OF_ASC_NODE = 252.3775
ARG_OF_PERICENTER = 283.7657
MEAN_ANOMALY   = 75.4476

EPHEMERIS_TYPE = 0
CLASSIFICATION_TYPE = U
NORAD_CAT_ID   = 877
ELEMENT_SET_NO = 999
REV_AT_EPOCH   = 27072
BSTAR          = .97596491E-4
MEAN_MOTION_DOT = .38E-5
MEAN_MOTION_DDOT = 0

CCSDS_OMM_VERS = 2.0
CREATION_DATE  = 
ORIGINATOR     = 

OBJECT_NAME    = SL-8 R/B
OBJECT_ID      = 1967-045B
CENTER_NAME    = EARTH
REF_FRAME      = TEME
TIME_SYSTEM    = UTC
MEAN_ELEMENT_THEORY = SGP/SGP4

EPOCH          = 2026-04-05T13:31:38.133984
MEAN_MOTION    = 14.45644317
ECCENTRICITY   = .00650756
INCLINATION    = 74.0099
RA_OF_ASC_NODE = 297.9000
ARG_OF_PERICENTER = 298.2982
MEAN_ANOMALY   = 61.1619

EPHEMERIS_TYPE = 0
CLASSIFICATION_TYPE = U
NORAD_CAT_ID   = 2802
ELEMENT_SET_NO = 999
REV_AT_EPOCH   = 9290
BSTAR          = .11467003E-3
MEAN_MOTION_DOT = .387E-5
MEAN_MOTION_DDOT = 0

CCSDS_OMM_VERS = 2.0
CREATION_DATE  = 
ORIGINATOR     = 

OBJECT_NAME    = SL-8 R/B
OBJECT_ID      = 1968-040B
CENTER_NAME    = EARTH
REF_FRAME      = TEME
TIME_SYSTEM    = UTC
MEAN_ELEMENT_THEORY = SGP/SGP4

EPOCH          = 2026-04-05T12:40:17.517792
MEAN_MOTION    = 15.03460230
ECCENTRICITY   = .00232192
INCLINATION    = 74.0300
RA_OF_ASC_NODE = 258.8413
ARG_OF_PERICENTER = 71.5272
MEAN_ANOMALY   = 288.8437

EPHEMERIS_TYPE = 0
CLASSIFICATION_TYPE = U
NORAD_CAT_ID   = 3230
ELEMENT_SET_NO = 999
REV_AT_EPOCH   = 9404
BSTAR          = .37754213E-3
MEAN_MOTION_DOT = .5134E-4
MEAN_MOTION_DDOT = 0

CCSDS_OMM_VERS = 2.0
CREATION_DATE  = 
ORIGINATOR     = 

OBJECT_NAME    = OAO 2
OBJECT_ID      = 1968-110A
CENTER_NAME    = EARTH
REF_FRAME      = TEME
TIME_SYSTEM    = UTC
MEAN_ELEMENT_THEORY = SGP/SGP4

EPOCH          = 2026-04-05T09:53:29.499072
MEAN_MOTION    = 14.47323841
ECCENTRICITY   = .00051174
INCLINATION    = 34.9923
RA_OF_ASC_NODE = 116.0199
ARG_OF_PERICENTER = 48.0848
MEAN_ANOMALY   = 312.0278

EPHEMERIS_TYPE = 0
CLASSIFICATION_TYPE = U
NORAD_CAT_ID   = 3597
ELEMENT_SET_NO = 999
REV_AT_EPOCH   = 2297
BSTAR          = .89187967E-4
MEAN_MOTION_DOT = .312E-5
MEAN_MOTION_DDOT = 0

CCSDS_OMM_VERS = 2.0
CREATION_DATE  = 
ORIGINATOR     = 

OBJECT_NAME    = ISIS 1
OBJECT_ID      = 1969-009A
CENTER_NAME    = EARTH
REF_FRAME      = TEME
TIME_SYSTEM    = UTC
MEAN_ELEMENT_THEORY = SGP/SGP4

EPOCH          = 2026-04-05T10:43:12.488448
MEAN_MOTION    = 11.30421443
ECCENTRICITY   = .17077513
INCLINATION    = 88.4490
RA_OF_ASC_NODE = 152.3868
ARG_OF_PERICENTER = 35.1848
MEAN_ANOMALY   = 335.0765

EPHEMERIS_TYPE = 0
CLASSIFICATION_TYPE = U
NORAD_CAT_ID   = 3669
ELEMENT_SET_NO = 999
REV_AT_EPOCH   = 35155
BSTAR          = .11523403E-3
MEAN_MOTION_DOT = .178E-5
MEAN_MOTION_DDOT = 0

CCSDS_OMM_VERS = 2.0
CREATION_DATE  = 
ORIGINATOR     = 

OBJECT_NAME    = SERT 2
OBJECT_ID      = 1970-009A
CENTER_NAME    = EARTH
REF_FRAME      = TEME
TIME_SYSTEM    = UTC
MEAN_ELEMENT_THEORY = SGP/SGP4

EPOCH          = 2026-04-05T14:22:09.359616
MEAN_MOTION    = 13.58732936
ECCENTRICITY   = .0005758
INCLINATION    = 99.2795
RA_OF_ASC_NODE = 37.2251
ARG_OF_PERICENTER = 94.6276
MEAN_ANOMALY   = 78.3323

EPHEMERIS_TYPE = 0
CLASSIFICATION_TYPE = U
NORAD_CAT_ID   = 4327
ELEMENT_SET_NO = 999
REV_AT_EPOCH   = 78354
BSTAR          = .14689976E-3
MEAN_MOTION_DOT = .66E-6
MEAN_MOTION_DDOT = 0

CCSDS_OMM_VERS = 2.0
CREATION_DATE  = 
ORIGINATOR     = 

OBJECT_NAME    = SL-3 R/B
OBJECT_ID      = 1971-028B
CENTER_NAME    = EARTH
REF_FRAME      = TEME
TIME_SYSTEM    = UTC
MEAN_ELEMENT_THEORY = SGP/SGP4

EPOCH          = 2026-04-05T13:21:08.804160
MEAN_MOTION    = 15.63708645
ECCENTRICITY   = .00154913
INCLINATION    = 81.2383
RA_OF_ASC_NODE = 18.7910
ARG_OF_PERICENTER = 177.3006
MEAN_ANOMALY   = 182.8335

EPHEMERIS_TYPE = 0
CLASSIFICATION_TYPE = U
NORAD_CAT_ID   = 5118
ELEMENT_SET_NO = 999
REV_AT_EPOCH   = 99286
BSTAR          = .55983323E-3
MEAN_MOTION_DOT = .5275E-3
MEAN_MOTION_DDOT = 0

CCSDS_OMM_VERS = 2.0
CREATION_DATE  = 
ORIGINATOR     = 

OBJECT_NAME    = ASTEX 1
OBJECT_ID      = 1971-089A
CENTER_NAME    = EARTH
REF_FRAME      = TEME
TIME_SYSTEM    = UTC
MEAN_ELEMENT_THEORY = SGP/SGP4

EPOCH          = 2026-04-05T04:04:40.258560
MEAN_MOTION    = 14.50798837
ECCENTRICITY   = .00154394
INCLINATION    = 92.7081
RA_OF_ASC_NODE = 160.3167
ARG_OF_PERICENTER = 3.9738
MEAN_ANOMALY   = 356.1588

EPHEMERIS_TYPE = 0
CLASSIFICATION_TYPE = U
NORAD_CAT_ID   = 5560
ELEMENT_SET_NO = 999
REV_AT_EPOCH   = 86614
BSTAR          = .17341848E-3
MEAN_MOTION_DOT = .682E-5
MEAN_MOTION_DDOT = 0

CCSDS_OMM_VERS = 2.0
CREATION_DATE  = 
ORIGINATOR     = 

OBJECT_NAME    = SL-8 R/B
OBJECT_ID      = 1971-119B
CENTER_NAME    = EARTH
REF_FRAME      = TEME
TIME_SYSTEM    = UTC
MEAN_ELEMENT_THEORY = SGP/SGP4

EPOCH          = 2026-04-05T12:13:02.857440
MEAN_MOTION    = 14.38370361
ECCENTRICITY   = .05458587
INCLINATION    = 73.8840
RA_OF_ASC_NODE = 125.5697
ARG_OF_PERICENTER = 86.5152
MEAN_ANOMALY   = 279.8246

EPHEMERIS_TYPE = 0
CLASSIFICATION_TYPE = U
NORAD_CAT_ID   = 5730
ELEMENT_SET_NO = 999
REV_AT_EPOCH   = 65934
BSTAR          = .41574092E-3
MEAN_MOTION_DOT = .7946E-4
MEAN_MOTION_DDOT = 0

CCSDS_OMM_VERS = 2.0
CREATION_DATE  = 
ORIGINATOR     = 

OBJECT_NAME    = OAO 3 (COPERNICUS)
OBJECT_ID      = 1972-065A
CENTER_NAME    = EARTH
REF_FRAME      = TEME
TIME_SYSTEM    = UTC
MEAN_ELEMENT_THEORY = SGP/SGP4

EPOCH          = 2026-04-05T13:27:23.208192
MEAN_MOTION    = 14.60020673
ECCENTRICITY   = .0006476
INCLINATION    = 35.0046
RA_OF_ASC_NODE = 144.2157
ARG_OF_PERICENTER = 15.4867
MEAN_ANOMALY   = 136.3570

EPHEMERIS_TYPE = 0
CLASSIFICATION_TYPE = U
NORAD_CAT_ID   = 6153
ELEMENT_SET_NO = 999
REV_AT_EPOCH   = 85012
BSTAR          = .9482338E-4
MEAN_MOTION_DOT = .441E-5
MEAN_MOTION_DDOT = 0

