ATLAS CENTAUR 2         
1 00694U 63047A   26095.55014542  .00003849  00000+0  45906-3 0  9997
2 00694  30.3576  45.5192 0547037 317.0189  38.8893 14.12196404135422
THOR AGENA D R/B        
1 00733U 64002A   26095.59416115  .00000273  00000+0  11454-3 0  9998
2 00733  99.1208 110.3972 0032961 178.4286 181.7006 14.34035320242156
SL-3 R/B                
1 00877U 64053B   26095.58634473  .00000380  00000+0  97596-4 0  9992
2 00877  65.0759 252.3775 0080652 283.7657  75.4476 14.61388653270722
SL-8 R/B                
1 02802U 67045B   26095.56363581  .00000387  00000+0  11467-3 0  9992
2 02802  74.0099 297.9000 0065075 298.2982  61.1619 14.45644317 92906
SL-8 R/B                
1 03230U 68040B   26095.52798053  .00005134  00000+0  37754-3 0  9998
2 03230  74.0300 258.8413 0023219  71.5272 288.8437 15.03460230 94047
OAO 2                   
1 03597U 68110A   26095.41214698  .00000312  00000+0  89188-4 0  9990
2 03597  34.9923 116.0199 0005117  48.0848 312.0278 14.47323841 22979
ISIS 1                  
1 03669U 69009A   26095.44667232  .00000178  00000+0  11523-3 0  9994
2 03669  88.4490 152.3868 1707751  35.1848 335.0765 11.30421443351550
SERT 2                  
1 04327U 70009A   26095.59871944  .00000066  00000+0  14690-3 0  9995
2 04327  99.2795  37.2251 0005758  94.6276  78.3323 13.58732936783548
SL-3 R/B                
1 05118U 71028B   26095.55635190  .00052750  00000+0  55983-3 0  9990
2 05118  81.2383  18.7910 0015491 177.3006 182.8335 15.63708645992861
ASTEX 1                 
1 05560U 71089A   26095.16991040  .00000682  00000+0  17342-3 0  9998
2 05560  92.7081 160.3167 0015439   3.9738 356.1588 14.50798837866144
SL-8 R/B                
1 05730U 71119B   26095.50906085  .00007946  00000+0  41574-3 0  9998
2 05730  73.8840 125.5697 0545858  86.5152 279.8246 14.38370361659345
OAO 3 (COPERNICUS)      
1 06153U 72065A   26095.56068528  .00000441  00000+0  94823-4 0  9995
2 06153  35.0046 144.2157 0006476  15.4867 136.3570 14.60020673850123
